STARLINK-1096
1 24942C 20001AE  21325.12815394  .00003712  00000-0  24870-3 0  3252
2 24942  53.0506 172.6633 0001831  76.5075 150.1702 15.06397363    15
